COMMENT,ORIGINATOR,NORAD_CAT_ID,OBJECT_NAME,OBJECT_TYPE,CLASSIFICATION_TYPE,INTLDES,EPOCH,EPOCH_MICROSECONDS,MEAN_MOTION,ECCENTRICITY,INCLINATION,RA_OF_ASC_NODE,ARG_OF_PERICENTER,MEAN_ANOMALY,EPHEMERIS_TYPE,ELEMENT_SET_NO,REV_AT_EPOCH,BSTAR,MEAN_MOTION_DOT,MEAN_MOTION_DDOT,FILE,TLE_LINE0,TLE_LINE1,TLE_LINE2,OBJECT_ID,OBJECT_NUMBER,SEMIMAJOR_AXIS,PERIOD,APOGEE,PERIGEE,DECAYED
"GENERATED VIA SPACETRACK.ORG API","18 SPCS","12345","COSMOS 1174 DEB","DEBRIS","U","80030T","1989-01-25 01:01:26","213664","14.23574749","0.0560573","66.0709","308.7451","249.3651","104.6365","0","999","89729","0.002103","0.00026336","0","34686","0 COSMOS 1174 DEB","1 12345U 80030  T 89025.04266451  .00026336 +00000-0 +21030-2 0  9996","2 12345 066.0709 308.7451 0560573 249.3651 104.6365 14.23574749897295","1980-030T","12345","7191.430","101.154","1216.427","410.163","1"
"GENERATED VIA SPACETRACK.ORG API","18 SPCS","12345","COSMOS 1174 DEB","DEBRIS","U","80030T","1989-01-24 04:47:25","700928","14.23538035","0.0561165","66.0699","310.9955","249.8726","104.1162","0","999","89717","0.0022826","0.00028672","0","34686","0 COSMOS 1174 DEB","1 12345U 80030  T 89024.19960302  .00028672 +00000-0 +22826-2 0  9996","2 12345 066.0699 310.9955 0561165 249.8726 104.1162 14.23538035897178","1980-030T","12345","7191.554","101.156","1216.984","409.854","1"
"GENERATED VIA SPACETRACK.ORG API","18 SPCS","12345","COSMOS 1174 DEB","DEBRIS","U","80030T","1989-01-24 01:25:05","83967","14.23538709","0.056107","66.0693","311.37","249.8957","104.0914","0","999","89715","0.0024452","0.00030707","0","34686","0 COSMOS 1174 DEB","1 12345U 80030  T 89024.05908662  .00030707 +00000-0 +24452-2 0  9991","2 12345 066.0693 311.3700 0561070 249.8957 104.0914 14.23538709897156","1980-030T","12345","7191.552","101.156","1216.913","409.920","1"
"GENERATED VIA SPACETRACK.ORG API","18 SPCS","12345","COSMOS 1174 DEB","DEBRIS","U","80030T","1989-01-23 03:30:15","968159","14.23499622","0.0561968","66.0675","313.8105","250.4788","103.4801","0","999","89702","0.0028614","0.00036125","0","131042","0 COSMOS 1174 DEB","1 12345U 80030  T 89023.14601815  .00036125 +00000-0 +28614-2 0  9994","2 12345 066.0675 313.8105 0561968 250.4788 103.4801 14.23499622897022","1980-030T","12345","7191.683","101.159","1217.698","409.399","1"
"GENERATED VIA SPACETRACK.ORG API","18 SPCS","12345","COSMOS 1174 DEB","DEBRIS","U","80030T","1989-01-22 03:53:26","238335","14.23426185","0.0562019","66.0679","316.4385","251.0584","102.8877","0","999","89688","0.0028278","0.0003562","0","34686","0 COSMOS 1174 DEB","1 12345U 80030  T 89022.16210924  .00035620 +00000-0 +28278-2 0  9997","2 12345 066.0679 316.4385 0562019 251.0584 102.8877 14.23426185896887","1980-030T","12345","7191.931","101.164","1217.996","409.595","1"
"GENERATED VIA SPACETRACK.ORG API","18 SPCS","12345","COSMOS 1174 DEB","DEBRIS","U","80030T","1989-01-22 02:12:15","657696","14.23417447","0.05623","66.0681","316.6265","251.1361","102.7995","0","999","89687","0.0027513","0.00034707","0","34686","0 COSMOS 1174 DEB","1 12345U 80030  T 89022.09184789  .00034707 +00000-0 +27513-2 0  9994","2 12345 066.0681 316.6265 0562300 251.1361 102.7995 14.23417447896876","1980-030T","12345","7191.960","101.165","1218.229","409.421","1"
"GENERATED VIA SPACETRACK.ORG API","18 SPCS","12345","COSMOS 1174 DEB","DEBRIS","U","80030T","1989-01-21 05:58:07","57055","14.23352316","0.056196","66.0699","318.8796","251.6714","102.2577","0","999","89675","0.0026094","0.00032761","0","34686","0 COSMOS 1174 DEB","1 12345U 80030  T 89021.24869279  .00032761 +00000-0 +26094-2 0  9995","2 12345 066.0699 318.8796 0561960 251.6714 102.2577 14.23352316896757","1980-030T","12345","7192.179","101.170","1218.216","409.873","1"
"GENERATED VIA SPACETRACK.ORG API","18 SPCS","12345","COSMOS 1174 DEB","DEBRIS","U","80030T","1989-01-21 04:17:20","130144","14.2334711","0.0561864","66.07","319.0678","251.785","102.1315","0","999","89674","0.002604","0.00032664","0","131042","0 COSMOS 1174 DEB","1 12345U 80030  T 89021.17870521  .00032664 +00000-0 +26040-2 0  9992","2 12345 066.0700 319.0678 0561864 251.7850 102.1315 14.23347110896741","1980-030T","12345","7192.197","101.170","1218.166","409.958","1"
"GENERATED VIA SPACETRACK.ORG API","18 SPCS","12345","COSMOS 1174 DEB","DEBRIS","U","80030T","1989-01-21 00:54:34","166015","14.2333918","0.0561786","66.0702","319.4431","251.8392","102.0754","0","999","89672","0.0026264","0.00032922","0","34686","0 COSMOS 1174 DEB","1 12345U 80030  T 89021.03789544  .00032922 +00000-0 +26264-2 0  9996","2 12345 066.0702 319.4431 0561786 251.8392 102.0754 14.23339180896721","1980-030T","12345","7192.224","101.171","1218.138","410.040","1"
"GENERATED VIA SPACETRACK.ORG API","18 SPCS","12345","COSMOS 1174 DEB","DEBRIS","U","80030T","1989-01-20 04:40:20","792640","14.23292754","0.0562639","66.0685","321.6932","252.2259","101.66","0","999","89660","0.0028347","0.00035691","0","34686","0 COSMOS 1174 DEB","1 12345U 80030  T 89020.19468510  .00035691 +00000-0 +28347-2 0  9999","2 12345 066.0685 321.6932 0562639 252.2259 101.6600 14.23292754896604","1980-030T","12345","7192.380","101.174","1218.916","409.574","1"
"GENERATED VIA SPACETRACK.ORG API","18 SPCS","12345","COSMOS 1174 DEB","DEBRIS","U","80030T","1989-01-19 21:55:35","666399","14.23282955","0.0562103","66.0682","322.4424","252.3035","101.5839","0","999","89656","0.003026","0.00037958","0","34686","0 COSMOS 1174 DEB","1 12345U 80030  T 89019.91360725  .00037958 +00000-0 +30260-2 0  9991","2 12345 066.0682 322.4424 0562103 252.3035 101.5839 14.23282955896565","1980-030T","12345","7192.413","101.175","1218.566","409.990","1"
"GENERATED VIA SPACETRACK.ORG API","18 SPCS","12345","COSMOS 1174 DEB","DEBRIS","U","80030T","1989-01-19 06:45:17","853695","14.23245638","0.0563018","66.0662","324.1317","252.6596","101.2173","0","999","89647","0.0032688","0.00041215","0","131042","0 COSMOS 1174 DEB","1 12345U 80030  T 89019.28145664  .00041215 +00000-0 +32688-2 0  9991","2 12345 066.0662 324.1317 0563018 252.6596 101.2173 14.23245638896479","1980-030T","12345","7192.539","101.177","1219.357","409.451","1"
"GENERATED VIA SPACETRACK.ORG API","18 SPCS","12345","COSMOS 1174 DEB","DEBRIS","U","80030T","1989-01-19 06:44:53","854368","14.23245637","0.0563018","66.0662","324.1318","252.6597","101.2173","0","999","89647","0.0032688","0.00041215","0","34686","0 COSMOS 1174 DEB","1 12345U 80030  T 89019.28117887  .00041215 +00000-0 +32688-2 0  9997","2 12345 066.0662 324.1318 0563018 252.6597 101.2173 14.23245637896470","1980-030T","12345","7192.539","101.177","1219.357","409.451","1"
"GENERATED VIA SPACETRACK.ORG API","18 SPCS","12345","COSMOS 1174 DEB","DEBRIS","U","80030T","1989-01-18 22:18:56","511936","14.23222273","0.0562594","66.067","325.07","252.8296","101.0392","0","999","89642","0.003366","0.00042288","0","34686","0 COSMOS 1174 DEB","1 12345U 80030  T 89018.92982074  .00042288 +00000-0 +33660-2 0  9997","2 12345 066.0670 325.0700 0562594 252.8296 101.0392 14.23222273896427","1980-030T","12345","7192.617","101.179","1219.135","409.830","1"
"GENERATED VIA SPACETRACK.ORG API","18 SPCS","12345","COSMOS 1174 DEB","DEBRIS","U","80030T","1989-01-17 07:31:26","626368","14.23087852","0.0563329","66.0656","329.3842","253.7684","100.0753","0","999","89619","0.0034907","0.00043876","0","34686","0 COSMOS 1174 DEB","1 12345U 80030  T 89017.31350262  .00043876 +00000-0 +34907-2 0  9996","2 12345 066.0656 329.3842 0563329 253.7684 100.0753 14.23087852896199","1980-030T","12345","7193.070","101.188","1220.142","409.729","1"
"GENERATED VIA SPACETRACK.ORG API","18 SPCS","12345","COSMOS 1174 DEB","DEBRIS","U","80030T","1989-01-17 04:09:26","561376","14.23074515","0.0563409","66.0662","329.7599","253.8545","99.9859","0","999","89617","0.003469","0.00043602","0","131042","0 COSMOS 1174 DEB","1 12345U 80030  T 89017.17322409  .00043602 +00000-0 +34690-2 0  9998","2 12345 066.0662 329.7599 0563409 253.8545 099.9859 14.23074515896178","1980-030T","12345","7193.115","101.189","1220.247","409.714","1"
"GENERATED VIA SPACETRACK.ORG API","18 SPCS","12345","COSMOS 1174 DEB","DEBRIS","U","80030T","1989-01-16 06:13:23","419775","14.22991431","0.0563573","66.0667","332.2003","254.3961","99.4298","0","999","89604","0.0034114","0.00042802","0","34686","0 COSMOS 1174 DEB","1 12345U 80030  T 89016.25929884  .00042802 +00000-0 +34114-2 0  9998","2 12345 066.0667 332.2003 0563573 254.3961 099.4298 14.22991431896044","1980-030T","12345","7193.395","101.195","1220.661","409.860","1"
"GENERATED VIA SPACETRACK.ORG API","18 SPCS","12345","COSMOS 1174 DEB","DEBRIS","U","80030T","1989-01-15 06:36:50","834304","14.22902803","0.0563874","66.0669","334.8278","254.9571","98.8507","0","999","89590","0.0033152","0.00041549","0","131042","0 COSMOS 1174 DEB","1 12345U 80030  T 89015.27558836  .00041549 +00000-0 +33152-2 0  9992","2 12345 066.0669 334.8278 0563874 254.9571 098.8507 14.22902803895900","1980-030T","12345","7193.694","101.202","1221.193","409.925","1"
"GENERATED VIA SPACETRACK.ORG API","18 SPCS","12345","COSMOS 1174 DEB","DEBRIS","U","80030T","1989-01-09 03:49:42","87359","14.22400937","0.0566358","66.0657","351.1508","258.506","95.1953","0","999","89503","0.0024792","0.0003102","0","131042","0 COSMOS 1174 DEB","1 12345U 80030  T 89009.15951490  .00031020 +00000-0 +24792-2 0  9998","2 12345 066.0657 351.1508 0566358 258.5060 095.1953 14.22400937895038","1980-030T","12345","7195.386","101.237","1224.767","409.735","1"
"GENERATED VIA SPACETRACK.ORG API","18 SPCS","12345","COSMOS 1174 DEB","DEBRIS","U","80030T","1989-01-05 00:15:27","156671","14.22138222","0.0567121","66.0669","2.2192","260.9516","92.6931","0","999","89444","0.0022572","0.00028118","0","131042","0 COSMOS 1174 DEB","1 12345U 80030  T 89005.01073098  .00028118 +00000-0 +22572-2 0  9996","2 12345 066.0669 002.2192 0567121 260.9516 092.6931 14.22138222894443","1980-030T","12345","7196.272","101.256","1226.253","410.021","1"
